{
  "type": "FeatureCollection",
  "features": [
    {
      "type": "Feature",
      "properties": {
        "norad_id": 34340,
        "name": "COSMOS 2251 DEB",
        "group": "cosmos-2251-debris",
        "lat": -64.35125452350788,
        "lon": 164.52237522183674,
        "alt_km": 1173.5309903395828,
        "timestamp": "2025-12-12T16:50:33.540494+00:00",
        "meta_object_name": "COSMOS 2251 DEB",
        "meta_object_id": "1993-036PN",
        "meta_epoch": "2025-12-12T07:30:08.360928",
        "meta_mean_motion": 13.79567959,
        "meta_eccentricity": 0.02825705,
        "meta_inclination": 74.0793,
        "meta_ra_of_asc_node": 308.7004,
        "meta_arg_of_pericenter": 56.5863,
        "meta_mean_anomaly": 61.6831,
        "meta_ephemeris_type": 0,
        "meta_classification_type": "U",
        "meta_norad_cat_id": 34340,
        "meta_element_set_no": 999,
        "meta_rev_at_epoch": 84262,
        "meta_bstar": 0.0020466181,
        "meta_mean_motion_dot": 2.826e-05,
        "meta_mean_motion_ddot": 0,
        "tle_line1": "1 34340U 93036PN  25346.31259677  .00002826  00000+0  20466-2 0  9992",
        "tle_line2": "2 34340  74.0793 308.7004 0282570  56.5863  61.6831 13.79567959842623"
      },
      "geometry": {
        "type": "Point",
        "coordinates": [
          164.52237522183674,
          -64.35125452350788
        ]
      }
    },
    {
      "type": "Feature",
      "properties": {
        "norad_id": 34343,
        "name": "COSMOS 2251 DEB",
        "group": "cosmos-2251-debris",
        "lat": -46.66123642739744,
        "lon": 71.9494055814541,
        "alt_km": 659.5514244032447,
        "timestamp": "2025-12-12T16:50:33.540504+00:00",
        "meta_object_name": "COSMOS 2251 DEB",
        "meta_object_id": "1993-036PR",
        "meta_epoch": "2025-12-12T07:33:32.552640",
        "meta_mean_motion": 14.6943285,
        "meta_eccentricity": 0.00233377,
        "meta_inclination": 74.0199,
        "meta_ra_of_asc_node": 90.3778,
        "meta_arg_of_pericenter": 5.5555,
        "meta_mean_anomaly": 60.1729,
        "meta_ephemeris_type": 0,
        "meta_classification_type": "U",
        "meta_norad_cat_id": 34343,
        "meta_element_set_no": 999,
        "meta_rev_at_epoch": 88724,
        "meta_bstar": 0.002392469,
        "meta_mean_motion_dot": 0.00014222,
        "meta_mean_motion_ddot": 0,
        "tle_line1": "1 34343U 93036PR  25346.31496010  .00014222  00000+0  23925-2 0  9995",
        "tle_line2": "2 34343  74.0199  90.3778 0023337   5.5555  60.1729 14.69432850887242"
      },
      "geometry": {
        "type": "Point",
        "coordinates": [
          71.9494055814541,
          -46.66123642739744
        ]
      }
    },
    {
      "type": "Feature",
      "properties": {
        "norad_id": 34344,
        "name": "COSMOS 2251 DEB",
        "group": "cosmos-2251-debris",
        "lat": 57.06694751676443,
        "lon": 136.7495315217586,
        "alt_km": 897.1158194496747,
        "timestamp": "2025-12-12T16:50:33.540514+00:00",
        "meta_object_name": "COSMOS 2251 DEB",
        "meta_object_id": "1993-036PS",
        "meta_epoch": "2025-12-11T19:14:49.841664",
        "meta_mean_motion": 14.16396729,
        "meta_eccentricity": 0.01558144,
        "meta_inclination": 73.9782,
        "meta_ra_of_asc_node": 112.0214,
        "meta_arg_of_pericenter": 296.3882,
        "meta_mean_anomaly": 216.6791,
        "meta_ephemeris_type": 0,
        "meta_classification_type": "U",
        "meta_norad_cat_id": 34344,
        "meta_element_set_no": 999,
        "meta_rev_at_epoch": 86083,
        "meta_bstar": 0.0025281982,
        "meta_mean_motion_dot": 5.632e-05,
        "meta_mean_motion_ddot": 0,
        "tle_line1": "1 34344U 93036PS  25345.80196576  .00005632  00000+0  25282-2 0  9996",
        "tle_line2": "2 34344  73.9782 112.0214 0155814 296.3882 216.6791 14.16396729860834"
      },
      "geometry": {
        "type": "Point",
        "coordinates": [
          136.7495315217586,
          57.06694751676443
        ]
      }
    },
    {
      "type": "Feature",
      "properties": {
        "norad_id": 34346,
        "name": "COSMOS 2251 DEB",
        "group": "cosmos-2251-debris",
        "lat": 4.02522474168776,
        "lon": 131.1552798012561,
        "alt_km": 788.328938862076,
        "timestamp": "2025-12-12T16:50:33.540525+00:00",
        "meta_object_name": "COSMOS 2251 DEB",
        "meta_object_id": "1993-036PU",
        "meta_epoch": "2025-12-11T23:08:22.979040",
        "meta_mean_motion": 13.99688406,
        "meta_eccentricity": 0.0206215,
        "meta_inclination": 73.9954,
        "meta_ra_of_asc_node": 313.5919,
        "meta_arg_of_pericenter": 132.6799,
        "meta_mean_anomaly": 286.03,
        "meta_ephemeris_type": 0,
        "meta_classification_type": "U",
        "meta_norad_cat_id": 34346,
        "meta_element_set_no": 999,
        "meta_rev_at_epoch": 85399,
        "meta_bstar": 0.0014434,
        "meta_mean_motion_dot": 2.514e-05,
        "meta_mean_motion_ddot": 0,
        "tle_line1": "1 34346U 93036PU  25345.96415485  .00002514  00000+0  14434-2 0  9991",
        "tle_line2": "2 34346  73.9954 313.5919 0206215 132.6799 286.0300 13.99688406853990"
      },
      "geometry": {
        "type": "Point",
        "coordinates": [
          131.1552798012561,
          4.02522474168776
        ]
      }
    },
    {
      "type": "Feature",
      "properties": {
        "norad_id": 34383,
        "name": "COSMOS 2251 DEB",
        "group": "cosmos-2251-debris",
        "lat": -3.2471357875254876,
        "lon": -63.150604463130506,
        "alt_km": 541.222121299601,
        "timestamp": "2025-12-12T16:50:33.540536+00:00",
        "meta_object_name": "COSMOS 2251 DEB",
        "meta_object_id": "1993-036PY",
        "meta_epoch": "2025-12-12T07:51:24.539040",
        "meta_mean_motion": 15.08950534,
        "meta_eccentricity": 0.00023212,
        "meta_inclination": 74.0222,
        "meta_ra_of_asc_node": 298.5527,
        "meta_arg_of_pericenter": 42.7371,
        "meta_mean_anomaly": 80.986,
        "meta_ephemeris_type": 0,
        "meta_classification_type": "U",
        "meta_norad_cat_id": 34383,
        "meta_element_set_no": 999,
        "meta_rev_at_epoch": 89107,
        "meta_bstar": 0.0042291797,
        "meta_mean_motion_dot": 0.00067394,
        "meta_mean_motion_ddot": 0,
        "tle_line1": "1 34383U 93036PY  25346.32736735  .00067394  00000+0  42292-2 0  9997",
        "tle_line2": "2 34383  74.0222 298.5527 0002321  42.7371  80.9860 15.08950534891076"
      },
      "geometry": {
        "type": "Point",
        "coordinates": [
          -63.150604463130506,
          -3.2471357875254876
        ]
      }
    },
    {
      "type": "Feature",
      "properties": {
        "norad_id": 34387,
        "name": "COSMOS 2251 DEB",
        "group": "cosmos-2251-debris",
        "lat": -54.70547255280404,
        "lon": -171.8793494773296,
        "alt_km": 725.149230846404,
        "timestamp": "2025-12-12T16:50:33.540618+00:00",
        "meta_object_name": "COSMOS 2251 DEB",
        "meta_object_id": "1993-036QC",
        "meta_epoch": "2025-12-12T02:52:38.968608",
        "meta_mean_motion": 14.43818415,
        "meta_eccentricity": 0.00387761,
        "meta_inclination": 74.0394,
        "meta_ra_of_asc_node": 213.0478,
        "meta_arg_of_pericenter": 310.1156,
        "meta_mean_anomaly": 208.6562,
        "meta_ephemeris_type": 0,
        "meta_classification_type": "U",
        "meta_norad_cat_id": 34387,
        "meta_element_set_no": 999,
        "meta_rev_at_epoch": 88172,
        "meta_bstar": 0.0004343424,
        "meta_mean_motion_dot": 1.466e-05,
        "meta_mean_motion_ddot": 0,
        "tle_line1": "1 34387U 93036QC  25346.11989547  .00001466  00000+0  43434-3 0  9997",
        "tle_line2": "2 34387  74.0394 213.0478 0038776 310.1156 208.6562 14.43818415881721"
      },
      "geometry": {
        "type": "Point",
        "coordinates": [
          -171.8793494773296,
          -54.70547255280404
        ]
      }
    },
    {
      "type": "Feature",
      "properties": {
        "norad_id": 34388,
        "name": "COSMOS 2251 DEB",
        "group": "cosmos-2251-debris",
        "lat": -69.0077595315752,
        "lon": 174.94265518341442,
        "alt_km": 724.8805081841965,
        "timestamp": "2025-12-12T16:50:33.540630+00:00",
        "meta_object_name": "COSMOS 2251 DEB",
        "meta_object_id": "1993-036QD",
        "meta_epoch": "2025-12-12T02:59:05.105760",
        "meta_mean_motion": 14.49360724,
        "meta_eccentricity": 0.00140652,
        "meta_inclination": 74.039,
        "meta_ra_of_asc_node": 224.2589,
        "meta_arg_of_pericenter": 272.5488,
        "meta_mean_anomaly": 239.7098,
        "meta_ephemeris_type": 0,
        "meta_classification_type": "U",
        "meta_norad_cat_id": 34388,
        "meta_element_set_no": 999,
        "meta_rev_at_epoch": 88146,
        "meta_bstar": 0.0010928885,
        "meta_mean_motion_dot": 4.156e-05,
        "meta_mean_motion_ddot": 0,
        "tle_line1": "1 34388U 93036QD  25346.12436465  .00004156  00000+0  10929-2 0  9996",
        "tle_line2": "2 34388  74.0390 224.2589 0014065 272.5488 239.7098 14.49360724881460"
      },
      "geometry": {
        "type": "Point",
        "coordinates": [
          174.94265518341442,
          -69.0077595315752
        ]
      }
    }
  ]
}